{
  "norad_id": 65613,
  "name": "STARLINK-35162",
  "history": [
    {
      "epoch": "2026-03-28T18:22:44.295744Z",
      "apogee_km": 549.9258830402769,
      "perigee_km": 549.3093128810588,
      "latitude_deg": -2.4861743168000332e-05,
      "longitude_deg": 55.63200430597937,
      "height_km": 552.8083071574686,
      "semi_major_axis_km": 6927.7545979606675,
      "eccentricity": 4.45e-05,
      "inclination_deg": 97.6019,
      "raan_deg": 157.4981,
      "arg_perigee_deg": 114.1556,
      "mean_anomaly_deg": 245.9717,
      "mean_motion_rev_day": 15.05615299
    },
    {
      "epoch": "2026-03-29T03:56:56.574816Z",
      "apogee_km": 549.768531206546,
      "perigee_km": 549.3902778908578,
      "latitude_deg": 3.237723430479622e-06,
      "longitude_deg": -87.9193913494262,
      "height_km": 552.7112165416562,
      "semi_major_axis_km": 6927.716404548702,
      "eccentricity": 2.73e-05,
      "inclination_deg": 97.6015,
      "raan_deg": 157.8909,
      "arg_perigee_deg": 110.7532,
      "mean_anomaly_deg": 249.3724,
      "mean_motion_rev_day": 15.0562775
    },
    {
      "epoch": "2026-03-30T02:16:44.617440Z",
      "apogee_km": 549.6766767036506,
      "perigee_km": 549.2849891913747,
      "latitude_deg": 1.9882535783479007e-07,
      "longitude_deg": -62.86942901175499,
      "height_km": 552.6296747921596,
      "semi_major_axis_km": 6927.617832947512,
      "eccentricity": 2.827e-05,
      "inclination_deg": 97.6018,
      "raan_deg": 158.8081,
      "arg_perigee_deg": 115.4008,
      "mean_anomaly_deg": 244.7248,
      "mean_motion_rev_day": 15.05659885
    },
    {
      "epoch": "2026-03-30T10:15:14.219424Z",
      "apogee_km": 549.7144624742532,
      "perigee_km": 549.1865803051232,
      "latitude_deg": 1.324584669492373e-05,
      "longitude_deg": 177.50661096913183,
      "height_km": 552.6193210441056,
      "semi_major_axis_km": 6927.587521389688,
      "eccentricity": 3.81e-05,
      "inclination_deg": 97.6015,
      "raan_deg": 159.135,
      "arg_perigee_deg": 113.2252,
      "mean_anomaly_deg": 246.9015,
      "mean_motion_rev_day": 15.05669767
    },
    {
      "epoch": "2026-03-30T18:13:43.946688Z",
      "apogee_km": 549.5904622956823,
      "perigee_km": 549.3176537598174,
      "latitude_deg": -3.530292199978098e-06,
      "longitude_deg": 57.88263147906722,
      "height_km": 552.6134654263699,
      "semi_major_axis_km": 6927.59105802775,
      "eccentricity": 1.969e-05,
      "inclination_deg": 97.6012,
      "raan_deg": 159.4624,
      "arg_perigee_deg": 133.7756,
      "mean_anomaly_deg": 226.3487,
      "mean_motion_rev_day": 15.05668614
    },
    {
      "epoch": "2026-03-31T10:10:43.305312Z",
      "apogee_km": 549.6432021380106,
      "perigee_km": 549.2578897187059,
      "latitude_deg": 5.134182950370753e-05,
      "longitude_deg": 178.63486156280183,
      "height_km": 552.6714610711138,
      "semi_major_axis_km": 6927.587545928358,
      "eccentricity": 2.781e-05,
      "inclination_deg": 97.6009,
      "raan_deg": 160.117,
      "arg_perigee_deg": 144.0154,
      "mean_anomaly_deg": 216.1092,
      "mean_motion_rev_day": 15.05669759
    },
    {
      "epoch": "2026-04-01T03:43:25.287456Z",
      "apogee_km": 549.5450569084414,
      "perigee_km": 549.3968060987072,
      "latitude_deg": 6.919698474047767e-05,
      "longitude_deg": -84.53951275162068,
      "height_km": 552.5753524177107,
      "semi_major_axis_km": 6927.607931503574,
      "eccentricity": 1.07e-05,
      "inclination_deg": 97.6024,
      "raan_deg": 160.8381,
      "arg_perigee_deg": 238.1639,
      "mean_anomaly_deg": 121.9578,
      "mean_motion_rev_day": 15.05663113
    },
    {
      "epoch": "2026-04-02T03:38:55.054176Z",
      "apogee_km": 549.5692792315031,
      "perigee_km": 549.382233687078,
      "latitude_deg": -2.6944335619611612e-05,
      "longitude_deg": -83.41368901716996,
      "height_km": 552.6341077555071,
      "semi_major_axis_km": 6927.61275645929,
      "eccentricity": 1.35e-05,
      "inclination_deg": 97.6016,
      "raan_deg": 161.8205,
      "arg_perigee_deg": 185.4453,
      "mean_anomaly_deg": 174.6772,
      "mean_motion_rev_day": 15.0566154
    },
    {
      "epoch": "2026-04-03T17:55:43.104288Z",
      "apogee_km": 549.9647816730248,
      "perigee_km": 549.1196048114489,
      "latitude_deg": 6.258692639237862e-05,
      "longitude_deg": 62.388286523684,
      "height_km": 552.4285308955609,
      "semi_major_axis_km": 6927.679193242237,
      "eccentricity": 6.1e-05,
      "inclination_deg": 97.6039,
      "raan_deg": 163.3948,
      "arg_perigee_deg": 295.1393,
      "mean_anomaly_deg": 64.9771,
      "mean_motion_rev_day": 15.05639881
    },
    {
      "epoch": "2026-04-04T16:15:31.681728Z",
      "apogee_km": 549.7031036469107,
      "perigee_km": 549.3151554636561,
      "latitude_deg": -6.175023916913672e-05,
      "longitude_deg": 87.43442926657504,
      "height_km": 552.5739934282853,
      "semi_major_axis_km": 6927.646129555284,
      "eccentricity": 2.8e-05,
      "inclination_deg": 97.603,
      "raan_deg": 164.3104,
      "arg_perigee_deg": 270.2084,
      "mean_anomaly_deg": 89.911,
      "mean_motion_rev_day": 15.0565066
    },
    {
      "epoch": "2026-04-05T11:23:55.226400Z",
      "apogee_km": 549.6602618823763,
      "perigee_km": 549.2641417600162,
      "latitude_deg": -4.2555665278037177e-05,
      "longitude_deg": 160.33577608680207,
      "height_km": 552.451945182496,
      "semi_major_axis_km": 6927.5992018211955,
      "eccentricity": 2.859e-05,
      "inclination_deg": 97.6031,
      "raan_deg": 165.0959,
      "arg_perigee_deg": 292.5025,
      "mean_anomaly_deg": 67.6171,
      "mean_motion_rev_day": 15.05665959
    },
    {
      "epoch": "2026-04-05T17:46:43.202784Z",
      "apogee_km": 550.1314399324701,
      "perigee_km": 548.8207355362711,
      "latitude_deg": -1.852601758579935e-05,
      "longitude_deg": 64.63375380040033,
      "height_km": 552.2962923966854,
      "semi_major_axis_km": 6927.61308773437,
      "eccentricity": 9.46e-05,
      "inclination_deg": 97.6029,
      "raan_deg": 165.3558,
      "arg_perigee_deg": 292.0623,
      "mean_anomaly_deg": 68.0503,
      "mean_motion_rev_day": 15.05661432
    },
    {
      "epoch": "2026-04-06T04:56:37.100544Z",
      "apogee_km": 549.7328889489354,
      "perigee_km": 549.2213539222084,
      "latitude_deg": -3.783696480085067e-05,
      "longitude_deg": -102.83924770177785,
      "height_km": 552.6507092209655,
      "semi_major_axis_km": 6927.614121435571,
      "eccentricity": 3.692e-05,
      "inclination_deg": 97.6032,
      "raan_deg": 165.8159,
      "arg_perigee_deg": 245.0448,
      "mean_anomaly_deg": 115.074,
      "mean_motion_rev_day": 15.05661095
    },
    {
      "epoch": "2026-04-07T17:37:43.302144Z",
      "apogee_km": 549.7336147546584,
      "perigee_km": 549.2639210495936,
      "latitude_deg": 3.0306262815299516e-05,
      "longitude_deg": 66.88579741283722,
      "height_km": 552.7131830225421,
      "semi_major_axis_km": 6927.635767902126,
      "eccentricity": 3.39e-05,
      "inclination_deg": 97.6032,
      "raan_deg": 167.3234,
      "arg_perigee_deg": 230.6671,
      "mean_anomaly_deg": 129.4526,
      "mean_motion_rev_day": 15.05654038
    },
    {
      "epoch": "2026-04-08T11:10:25.140000Z",
      "apogee_km": 549.6829761949457,
      "perigee_km": 549.2935051039167,
      "latitude_deg": 3.780727005060249e-05,
      "longitude_deg": 163.71192410433179,
      "height_km": 552.68930781412,
      "semi_major_axis_km": 6927.625240649431,
      "eccentricity": 2.811e-05,
      "inclination_deg": 97.6031,
      "raan_deg": 168.0444,
      "arg_perigee_deg": 225.8718,
      "mean_anomaly_deg": 134.2486,
      "mean_motion_rev_day": 15.0565747
    },
    {
      "epoch": "2026-04-09T11:05:55.342176Z",
      "apogee_km": 549.7855925950635,
      "perigee_km": 549.2232066662409,
      "latitude_deg": -6.797806380044872e-05,
      "longitude_deg": 164.83602561041243,
      "height_km": 552.7941282326656,
      "semi_major_axis_km": 6927.641399630652,
      "eccentricity": 4.059e-05,
      "inclination_deg": 97.6037,
      "raan_deg": 169.0269,
      "arg_perigee_deg": 217.1326,
      "mean_anomaly_deg": 142.9872,
      "mean_motion_rev_day": 15.05652202
    },
    {
      "epoch": "2026-04-10T11:01:25.298112Z",
      "apogee_km": 549.7751055758454,
      "perigee_km": 549.2098110120487,
      "latitude_deg": -4.372436593932981e-05,
      "longitude_deg": 165.96143899749924,
      "height_km": 552.8287447271282,
      "semi_major_axis_km": 6927.629458293946,
      "eccentricity": 4.08e-05,
      "inclination_deg": 97.6035,
      "raan_deg": 170.0097,
      "arg_perigee_deg": 196.5729,
      "mean_anomaly_deg": 163.5484,
      "mean_motion_rev_day": 15.05656095
    },
    {
      "epoch": "2026-04-11T18:55:25.396032Z",
      "apogee_km": 549.8435605141303,
      "perigee_km": 549.1757353772682,
      "latitude_deg": 2.043484800710221e-05,
      "longitude_deg": 47.46133239753267,
      "height_km": 552.9083103949391,
      "semi_major_axis_km": 6927.646647945699,
      "eccentricity": 4.82e-05,
      "inclination_deg": 97.6037,
      "raan_deg": 171.3201,
      "arg_perigee_deg": 183.1047,
      "mean_anomaly_deg": 177.0177,
      "mean_motion_rev_day": 15.05650491
    },
    {
      "epoch": "2026-04-13T04:25:08.707584Z",
      "apogee_km": 549.9280869572931,
      "perigee_km": 549.1610540538068,
      "latitude_deg": 3.3634436308340196e-05,
      "longitude_deg": -94.96954061819149,
      "height_km": 552.9792456615825,
      "semi_major_axis_km": 6927.68157050555,
      "eccentricity": 5.536e-05,
      "inclination_deg": 97.6037,
      "raan_deg": 172.6953,
      "arg_perigee_deg": 164.5755,
      "mean_anomaly_deg": 195.5489,
      "mean_motion_rev_day": 15.05639106
    }
  ]
}